{"type": "FeatureCollection", "features": [ {"type": "Feature", "properties": {"norad_id": 34077, "name": "IRIDIUM 33 DEB", "group": "iridium-33-debris", "lat": -49.9980031509777, "lon": 49.16951489249977, "alt_km": 686.6636729758184, "timestamp": "2025-12-08T05:48:09.418635+00:00", "meta": {"OBJECT_NAME": "IRIDIUM 33 DEB", "OBJECT_ID": "1997-051CL", "EPOCH": "2025-12-07T17:30:10.612800", "MEAN_MOTION": 14.64727132, "ECCENTRICITY": 0.0010688, "INCLINATION": 86.3861, "RA_OF_ASC_NODE": 53.7144, "ARG_OF_PERICENTER": 55.2764, "MEAN_ANOMALY": 74.1859, "EPHEMERIS_TYPE": 0, "CLASSIFICATION_TYPE": "U", "NORAD_CAT_ID": 34077, "ELEMENT_SET_NO": 999, "REV_AT_EPOCH": 88259, "BSTAR": 0.0027822703, "MEAN_MOTION_DOT": 0.00014865, "MEAN_MOTION_DDOT": 0}, "tle": {"line1": "1 34077U 97051CL  25341.72928950  .00014865  00000+0  27823-2 0  9997", "line2": "2 34077  86.3861  53.7144 0010688  55.2764  74.1859 14.64727132882594"}}, "geometry": {"type": "Point", "coordinates": [49.16951489249977, -49.9980031509777]}}, {"type": "Feature", "properties": {"norad_id": 34079, "name": "IRIDIUM 33 DEB", "group": "iridium-33-debris", "lat": 0.19148613558810992, "lon": 10.719568725674668, "alt_km": 617.834143865598, "timestamp": "2025-12-08T05:48:09.418645+00:00", "meta": {"OBJECT_NAME": "IRIDIUM 33 DEB", "OBJECT_ID": "1997-051CN", "EPOCH": "2025-12-07T20:52:32.558592", "MEAN_MOTION": 14.83340445, "ECCENTRICITY": 0.00061753, "INCLINATION": 86.3774, "RA_OF_ASC_NODE": 10.8765, "ARG_OF_PERICENTER": 23.6265, "MEAN_ANOMALY": 151.7698, "EPHEMERIS_TYPE": 0, "CLASSIFICATION_TYPE": "U", "NORAD_CAT_ID": 34079, "ELEMENT_SET_NO": 999, "REV_AT_EPOCH": 88905, "BSTAR": 0.0027063735, "MEAN_MOTION_DOT": 0.00022246, "MEAN_MOTION_DDOT": 0}, "tle": {"line1": "1 34079U 97051CN  25341.86982128  .00022246  00000+0  27064-2 0  9990", "line2": "2 34079  86.3774  10.8765 0006175  23.6265 151.7698 14.83340445889053"}}, "geometry": {"type": "Point", "coordinates": [10.719568725674668, 0.19148613558810992]}}, {"type": "Feature", "properties": {"norad_id": 34088, "name": "IRIDIUM 33 DEB", "group": "iridium-33-debris", "lat": -34.094915525709276, "lon": 30.337490583883667, "alt_km": 603.439986248367, "timestamp": "2025-12-08T05:48:09.418656+00:00", "meta": {"OBJECT_NAME": "IRIDIUM 33 DEB", "OBJECT_ID": "1997-051CX", "EPOCH": "2025-12-07T15:59:55.064256", "MEAN_MOTION": 14.91020771, "ECCENTRICITY": 0.0005328, "INCLINATION": 86.3847, "RA_OF_ASC_NODE": 33.0545, "ARG_OF_PERICENTER": 195.781, "MEAN_ANOMALY": 284.8122, "EPHEMERIS_TYPE": 0, "CLASSIFICATION_TYPE": "U", "NORAD_CAT_ID": 34088, "ELEMENT_SET_NO": 999, "REV_AT_EPOCH": 88666, "BSTAR": 0.0039560739, "MEAN_MOTION_DOT": 0.00039325, "MEAN_MOTION_DDOT": 0}, "tle": {"line1": "1 34088U 97051CX  25341.66660954  .00039325  00000+0  39561-2 0  9999", "line2": "2 34088  86.3847  33.0545 0005328 195.7810 284.8122 14.91020771886663"}}, "geometry": {"type": "Point", "coordinates": [30.337490583883667, -34.094915525709276]}}, {"type": "Feature", "properties": {"norad_id": 34091, "name": "IRIDIUM 33 DEB", "group": "iridium-33-debris", "lat": -52.29187862452348, "lon": 64.14683669043471, "alt_km": 609.0927663895873, "timestamp": "2025-12-08T05:48:09.418666+00:00", "meta": {"OBJECT_NAME": "IRIDIUM 33 DEB", "OBJECT_ID": "1997-051DA", "EPOCH": "2025-12-07T17:04:02.135712", "MEAN_MOTION": 14.81237969, "ECCENTRICITY": 0.00331325, "INCLINATION": 86.3419, "RA_OF_ASC_NODE": 69.1363, "ARG_OF_PERICENTER": 311.2818, "MEAN_ANOMALY": 48.5552, "EPHEMERIS_TYPE": 0, "CLASSIFICATION_TYPE": "U", "NORAD_CAT_ID": 34091, "ELEMENT_SET_NO": 999, "REV_AT_EPOCH": 87792, "BSTAR": 0.007996222, "MEAN_MOTION_DOT": 0.00063385, "MEAN_MOTION_DDOT": 0}, "tle": {"line1": "1 34091U 97051DA  25341.71113583  .00063385  00000+0  79962-2 0  9992", "line2": "2 34091  86.3419  69.1363 0033132 311.2818  48.5552 14.81237969877926"}}, "geometry": {"type": "Point", "coordinates": [64.14683669043471, -52.29187862452348]}}, {"type": "Feature", "properties": {"norad_id": 34097, "name": "IRIDIUM 33 DEB", "group": "iridium-33-debris", "lat": -51.942872428121795, "lon": -171.73698506883696, "alt_km": 831.462218187693, "timestamp": "2025-12-08T05:48:09.418676+00:00", "meta": {"OBJECT_NAME": "IRIDIUM 33 DEB", "OBJECT_ID": "1997-051DG", "EPOCH": "2025-12-07T18:40:48.134496", "MEAN_MOTION": 14.3471964, "ECCENTRICITY": 0.00831758, "INCLINATION": 86.1998, "RA_OF_ASC_NODE": 3.5973, "ARG_OF_PERICENTER": 18.3054, "MEAN_ANOMALY": 342.1104, "EPHEMERIS_TYPE": 0, "CLASSIFICATION_TYPE": "U", "NORAD_CAT_ID": 34097, "ELEMENT_SET_NO": 999, "REV_AT_EPOCH": 87048, "BSTAR": 0.0022730576, "MEAN_MOTION_DOT": 6.712e-05, "MEAN_MOTION_DDOT": 0}, "tle": {"line1": "1 34097U 97051DG  25341.77833489  .00006712  00000+0  22731-2 0  9991", "line2": "2 34097  86.1998   3.5973 0083175  18.3054 342.1104 14.34719640870489"}}, "geometry": {"type": "Point", "coordinates": [-171.73698506883696, -51.942872428121795]}}, {"type": "Feature", "properties": {"norad_id": 34145, "name": "IRIDIUM 33 DEB", "group": "iridium-33-debris", "lat": 19.550593293508772, "lon": -24.122261477028097, "alt_km": 749.9845200681275, "timestamp": "2025-12-08T05:48:09.418686+00:00", "meta": {"OBJECT_NAME": "IRIDIUM 33 DEB", "OBJECT_ID": "1997-051DY", "EPOCH": "2025-12-07T23:03:04.751424", "MEAN_MOTION": 14.42235871, "ECCENTRICITY": 0.0055559, "INCLINATION": 86.2113, "RA_OF_ASC_NODE": 334.6546, "ARG_OF_PERICENTER": 109.0134, "MEAN_ANOMALY": 251.7097, "EPHEMERIS_TYPE": 0, "CLASSIFICATION_TYPE": "U", "NORAD_CAT_ID": 34145, "ELEMENT_SET_NO": 999, "REV_AT_EPOCH": 87569, "BSTAR": 0.0013920574, "MEAN_MOTION_DOT": 4.693e-05, "MEAN_MOTION_DDOT": 0}, "tle": {"line1": "1 34145U 97051DY  25341.96047166  .00004693  00000+0  13921-2 0  9992", "line2": "2 34145  86.2113 334.6546 0055559 109.0134 251.7097 14.42235871875691"}}, "geometry": {"type": "Point", "coordinates": [-24.122261477028097, 19.550593293508772]}}, {"type": "Feature", "properties": {"norad_id": 34146, "name": "IRIDIUM 33 DEB", "group": "iridium-33-debris", "lat": -86.105634641255, "lon": -115.49619269187073, "alt_km": 721.0606557752462, "timestamp": "2025-12-08T05:48:09.418696+00:00", "meta": {"OBJECT_NAME": "IRIDIUM 33 DEB", "OBJECT_ID": "1997-051DZ", "EPOCH": "2025-12-07T23:41:17.071296", "MEAN_MOTION": 14.48997884, "ECCENTRICITY": 0.00251435, "INCLINATION": 86.2834, "RA_OF_ASC_NODE": 351.8998, "ARG_OF_PERICENTER": 238.5733, "MEAN_ANOMALY": 141.9749, "EPHEMERIS_TYPE": 0, "CLASSIFICATION_TYPE": "U", "NORAD_CAT_ID": 34146, "ELEMENT_SET_NO": 999, "REV_AT_EPOCH": 88038, "BSTAR": 0.0012899771, "MEAN_MOTION_DOT": 4.929e-05, "MEAN_MOTION_DDOT": 0}, "tle": {"line1": "1 34146U 97051DZ  25341.98700314  .00004929  00000+0  12900-2 0  9994", "line2": "2 34146  86.2834 351.8998 0025143 238.5733 141.9749 14.48997884880384"}}, "geometry": {"type": "Point", "coordinates": [-115.49619269187073, -86.105634641255]}}, {"type": "Feature", "properties": {"norad_id": 34159, "name": "IRIDIUM 33 DEB", "group": "iridium-33-debris", "lat": 26.047807952396436, "lon": -131.62778342067662, "alt_km": 778.845729586179, "timestamp": "2025-12-08T05:48:09.418706+00:00", "meta": {"OBJECT_NAME": "IRIDIUM 33 DEB", "OBJECT_ID": "1997-051EN", "EPOCH": "2025-12-07T22:24:36.579744", "MEAN_MOTION": 14.38475158, "ECCENTRICITY": 0.0026103, "INCLINATION": 86.3515, "RA_OF_ASC_NODE": 50.2906, "ARG_OF_PERICENTER": 304.7744, "MEAN_ANOMALY": 55.0997, "EPHEMERIS_TYPE": 0, "CLASSIFICATION_TYPE": "U", "NORAD_CAT_ID": 34159, "ELEMENT_SET_NO": 999, "REV_AT_EPOCH": 87890, "BSTAR": 0.00059598171, "MEAN_MOTION_DOT": 1.845e-05, "MEAN_MOTION_DDOT": 0}, "tle": {"line1": "1 34159U 97051EN  25341.93375671  .00001845  00000+0  59598-3 0  9996", "line2": "2 34159  86.3515  50.2906 0026103 304.7744  55.0997 14.38475158878908"}}, "geometry": {"type": "Point", "coordinates": [-131.62778342067662, 26.047807952396436]}}, {"type": "Feature", "properties": {"norad_id": 34350, "name": "IRIDIUM 33 DEB", "group": "iridium-33-debris", "lat": 70.63488187524986, "lon": 15.287206974633504, "alt_km": 730.7658363086075, "timestamp": "2025-12-08T05:48:09.418716+00:00", "meta": {"OBJECT_NAME": "IRIDIUM 33 DEB", "OBJECT_ID": "1997-051ES", "EPOCH": "2025-12-07T07:57:58.605120", "MEAN_MOTION": 14.45368778, "ECCENTRICITY": 0.00222637, "INCLINATION": 86.328, "RA_OF_ASC_NODE": 5.154, "ARG_OF_PERICENTER": 152.1514, "MEAN_ANOMALY": 227.8879, "EPHEMERIS_TYPE": 0, "CLASSIFICATION_TYPE": "U", "NORAD_CAT_ID": 34350, "ELEMENT_SET_NO": 999, "REV_AT_EPOCH": 88215, "BSTAR": 0.00056959331, "MEAN_MOTION_DOT": 2.027e-05, "MEAN_MOTION_DDOT": 0}, "tle": {"line1": "1 34350U 97051ES  25341.33192830  .00002027  00000+0  56959-3 0  9998", "line2": "2 34350  86.3280   5.1540 0022263 152.1514 227.8879 14.45368778882153"}}, "geometry": {"type": "Point", "coordinates": [15.287206974633504, 70.63488187524986]}}, {"type": "Feature", "properties": {"norad_id": 34366, "name": "IRIDIUM 33 DEB", "group": "iridium-33-debris", "lat": -79.05257277110184, "lon": -109.56911081194873, "alt_km": 724.2442899177368, "timestamp": "2025-12-08T05:48:09.418726+00:00", "meta": {"OBJECT_NAME": "IRIDIUM 33 DEB", "OBJECT_ID": "1997-051FJ", "EPOCH": "2025-12-07T22:49:04.445760", "MEAN_MOTION": 14.53992802, "ECCENTRICITY": 0.00220861, "INCLINATION": 86.3696, "RA_OF_ASC_NODE": 51.396, "ARG_OF_PERICENTER": 155.0204, "MEAN_ANOMALY": 21.9973, "EPHEMERIS_TYPE": 0, "CLASSIFICATION_TYPE": "U", "NORAD_CAT_ID": 34366, "ELEMENT_SET_NO": 999, "REV_AT_EPOCH": 88112, "BSTAR": 0.0015640864, "MEAN_MOTION_DOT": 6.633e-05, "MEAN_MOTION_DDOT": 0}, "tle": {"line1": "1 34366U 97051FJ  25341.95074590  .00006633  00000+0  15641-2 0  9994", "line2": "2 34366  86.3696  51.3960 0022086 155.0204  21.9973 14.53992802881125"}}, "geometry": {"type": "Point", "coordinates": [-109.56911081194873, -79.05257277110184]}}]}